NORAD_CAT_ID,OBJECT_NAME,OBJECT_TYPE,EPOCH,MEAN_MOTION,ECCENTRICITY,INCLINATION,RA_OF_ASC_NODE,ARG_OF_PERICENTER,MEAN_ANOMALY,BSTAR,MEAN_MOTION_DOT,MEAN_MOTION_DDOT,TLE_LINE0,TLE_LINE1,TLE_LINE2,SEMIMAJOR_AXIS,PERIOD,APOGEE,PERIGEE,DECAYED
228,DELTA 1 DEB (YO),DEBRIS,2020-10-28 22:11:25,15.01430443,0.0014800999999999998,48.428999999999995,205.0565,175.4233,184.6828,4.7986000000000004e-05,3.65e-06,0.0,0 DELTA 1 DEB (YO),1   228U 62002C   20302.92460238  .00000365  00000-0  47986-4 0  9995,2   228  48.4290 205.0565 0014801 175.4233 184.6828 15.01430443155400,6940.6219999999985,95.90899999999999,572.759,552.214,0.0
228,DELTA 1 DEB (YO),DEBRIS,2020-10-29 18:57:12,15.01431844,0.0014842,48.4289,200.8009,179.2478,180.847,5.1484e-05,4.11e-06,0.0,0 DELTA 1 DEB (YO),1   228U 62002C   20303.78972910 +.00000411 +00000-0 +51484-4 0  9995,2   228 048.4289 200.8009 0014842 179.2478 180.8470 15.01431844131403,6940.6169999999975,95.90799999999999,572.783,552.181,0.0
228,DELTA 1 DEB (YO),DEBRIS,2020-10-29 23:44:41,15.01432058,0.0014845999999999998,48.428999999999995,199.8188,180.1007,179.9916,5.1139e-05,4.07e-06,0.0,0 DELTA 1 DEB (YO),1   228U 62002C   20303.98937375  .00000407  00000-0  51139-4 0  9995,2   228  48.4290 199.8188 0014846 180.1007 179.9916 15.01432058155568,6940.6169999999975,95.90799999999999,572.786,552.178,0.0
228,DELTA 1 DEB (YO),DEBRIS,2020-10-30 20:30:28,15.01432911,0.0014894,48.4289,195.5633,183.9227,176.1583,4.6837e-05,3.5000000000000016e-06,0.0,0 DELTA 1 DEB (YO),1   228U 62002C   20304.85449979 +.00000350 +00000-0 +46837-4 0  9996,2   228 048.4289 195.5633 0014894 183.9227 176.1583 15.01432911131563,6940.614000000001,95.90799999999999,572.816,552.1419999999998,0.0
228,DELTA 1 DEB (YO),DEBRIS,2020-10-31 09:17:06,15.0143364,0.001491,48.4289,192.9445,186.3246,173.7491,4.695100000000001e-05,3.52e-06,0.0,0 DELTA 1 DEB (YO),1   228U 62002C   20305.38688459  .00000352  00000-0  46951-4 0  9992,2   228  48.4289 192.9445 0014910 186.3246 173.7491 15.01433640155772,6940.611999999999,95.90799999999999,572.825,552.128,0.0
228,DELTA 1 DEB (YO),DEBRIS,2020-10-31 20:27:55,15.01434719,0.0014945,48.4289,190.6531,188.2881,171.7798,5.3297e-05,4.35e-06,0.0,0 DELTA 1 DEB (YO),1   228U 62002C   20305.85272104 +.00000435 +00000-0 +53297-4 0  9993,2   228 048.4289 190.6531 0014945 188.2881 171.7798 15.01434719131711,6940.608,95.90799999999999,572.846,552.101,0.0
228,DELTA 1 DEB (YO),DEBRIS,2020-11-01 09:14:33,15.01435319,0.0014962,48.428999999999995,188.0343,190.6416,169.4193,5.2748000000000004e-05,4.28e-06,0.0,0 DELTA 1 DEB (YO),1   228U 62002C   20306.38510556 +.00000428 +00000-0 +52748-4 0  9990,2   228 048.4290 188.0343 0014962 190.6416 169.4193 15.01435319131793,6940.607,95.90799999999999,572.856,552.087,0.0
228,DELTA 1 DEB (YO),DEBRIS,2020-11-01 18:49:31,15.01435986,0.0014989,48.4289,186.0702,192.388,167.6677,5.444600000000002e-05,4.5e-06,0.0,0 DELTA 1 DEB (YO),1   228U 62002C   20306.78439353  .00000450  00000-0  54446-4 0  9991,2   228  48.4289 186.0702 0014989 192.3880 167.6677 15.01435986155985,6940.604,95.90799999999999,572.873,552.066,0.0
228,DELTA 1 DEB (YO),DEBRIS,2020-11-01 20:25:21,15.01436146,0.0014993,48.4289,185.7428,192.68,167.3748,5.5137e-05,4.59e-06,0.0,0 DELTA 1 DEB (YO),1   228U 62002C   20306.85094146 +.00000459 +00000-0 +55137-4 0  9993,2   228 048.4289 185.7428 0014993 192.6800 167.3748 15.01436146131862,6940.604,95.90799999999999,572.875,552.063,0.0
228,DELTA 1 DEB (YO),DEBRIS,2020-11-02 09:11:59,15.01436565,0.0015005,48.4289,183.1241,195.0255,165.0225,5.1873e-05,4.16e-06,0.0,0 DELTA 1 DEB (YO),1   228U 62002C   20307.38332554 +.00000416 +00000-0 +51873-4 0  9996,2   228 048.4289 183.1241 0015005 195.0255 165.0225 15.01436565131942,6940.603,95.90799999999999,572.882,552.053,0.0
228,DELTA 1 DEB (YO),DEBRIS,2020-11-02 20:22:47,15.01437114,0.0015039,48.4289,180.8325,197.0509,162.9911,5.0948e-05,4.04e-06,0.0,0 DELTA 1 DEB (YO),1   228U 62002C   20307.84916126 +.00000404 +00000-0 +50948-4 0  9999,2   228 048.4289 180.8325 0015039 197.0509 162.9911 15.01437114132018,6940.601,95.90799999999999,572.904,552.028,0.0
228,DELTA 1 DEB (YO),DEBRIS,2020-11-03 01:10:16,15.01437328,0.0015042,48.4288,179.8506,197.9041,162.1355,5.0465e-05,3.98e-06,0.0,0 DELTA 1 DEB (YO),1   228U 62002C   20308.04880518  .00000398  00000-0  50465-4 0  9993,2   228  48.4288 179.8506 0015042 197.9041 162.1355 15.01437328156174,6940.6,95.90799999999999,572.905,552.025,0.0
228,DELTA 1 DEB (YO),DEBRIS,2020-11-03 21:56:03,15.014378899999999,0.0015074,48.4288,175.595,201.6306,158.3982,4.374e-05,3.1e-06,0.0,0 DELTA 1 DEB (YO),1   228U 62002C   20308.91392864 +.00000310 +00000-0 +43740-4 0  9993,2   228 048.4288 175.5950 0015074 201.6306 158.3982 15.01437890132173,6940.599,95.90799999999999,572.9259999999998,552.001,0.0
228,DELTA 1 DEB (YO),DEBRIS,2020-11-03 23:31:53,15.01437922,0.0015075,48.4287,175.2678,201.9161,158.112,4.3239e-05,3.03e-06,0.0,0 DELTA 1 DEB (YO),1   228U 62002C   20308.98047664 +.00000303 +00000-0 +43239-4 0  9990,2   228 048.4287 175.2678 0015075 201.9161 158.1120 15.01437922132188,6940.598000000001,95.90799999999999,572.9259999999998,552.001,0.0
228,DELTA 1 DEB (YO),DEBRIS,2020-11-04 20:17:39,15.0143891,0.0015119,48.4287,171.0122,205.6659,154.3516,4.152e-05,2.81e-06,0.0,0 DELTA 1 DEB (YO),1   228U 62002C   20309.84559914 +.00000281 +00000-0 +41520-4 0  9998,2   228 048.4287 171.0122 0015119 205.6659 154.3516 15.01438910132318,6940.595,95.90799999999999,572.9540000000002,551.967,0.0
228,DELTA 1 DEB (YO),DEBRIS,2020-11-04 23:29:19,15.01438975,0.0015119999999999999,48.4286,170.3575,206.2428,153.7731,4.0428e-05,2.66e-06,0.0,0 DELTA 1 DEB (YO),1   228U 62002C   20309.97869493 +.00000266 +00000-0 +40428-4 0  9997,2   228 048.4286 170.3575 0015120 206.2428 153.7731 15.01438975132339,6940.595,95.90799999999999,572.9540000000002,551.966,0.0
228,DELTA 1 DEB (YO),DEBRIS,2020-11-05 15:27:36,15.01439692,0.0015154,48.4285,167.0838,209.1299,150.878,4.0122e-05,2.62e-06,0.0,0 DELTA 1 DEB (YO),1   228U 62002C   20310.64417350  .00000262  00000-0  40122-4 0  9991,2   228  48.4285 167.0838 0015154 209.1299 150.8780 15.01439692156568,6940.593000000003,95.90799999999999,572.976,551.94,0.0
228,DELTA 1 DEB (YO),DEBRIS,2020-11-06 07:25:53,15.01440577,0.0015176999999999999,48.4285,163.8103,212.1413,147.8587,4.382e-05,3.11e-06,0.0,0 DELTA 1 DEB (YO),1   228U 62002C   20311.30965201 +.00000311 +00000-0 +43820-4 0  9991,2   228 048.4285 163.8103 0015177 212.1413 147.8587 15.01440577132530,6940.59,95.90799999999999,572.989,551.922,0.0
228,DELTA 1 DEB (YO),DEBRIS,2020-11-06 15:25:02,15.01440968,0.0015195,48.4284,162.1734,213.5649,146.4313,4.4388e-05,3.18e-06,0.0,0 DELTA 1 DEB (YO),1   228U 62002C   20311.64239103 +.00000318 +00000-0 +44388-4 0  9990,2   228 048.4284 162.1734 0015195 213.5649 146.4313 15.01440968132588,6940.589,95.90799999999999,573.0,551.908,0.0
228,DELTA 1 DEB (YO),DEBRIS,2020-11-07 20:09:57,15.01441983,0.0015241,48.4282,156.2808,218.7441,141.2391,4.0987e-05,2.74e-06,0.0,0 DELTA 1 DEB (YO),1   228U 62002C   20312.84025117  .00000274  00000-0  40987-4 0  9993,2   228  48.4282 156.2808 0015241 218.7441 141.2391 15.01441983156898,6940.5859999999975,95.90799999999999,573.029,551.873,0.0
228,DELTA 1 DEB (YO),DEBRIS,2020-11-10 16:50:35,15.01445089,0.0015346,48.4282,142.204,231.1483,128.8071,4.2972e-05,3e-06,0.0,0 DELTA 1 DEB (YO),1   228U 62002C   20315.70180249 +.00000300 +00000+0 +42972-4 0  9994,2   228  48.4282 142.2040 0015346 231.1483 128.8071 15.01445089133197,6940.576,95.90799999999999,573.092,551.79,0.0
228,DELTA 1 DEB (YO),DEBRIS,2020-11-11 15:12:11,15.01446093,0.0015375,48.4283,137.621,235.1321,124.8157,4.3792e-05,3.11e-06,0.0,0 DELTA 1 DEB (YO),1   228U 62002C   20316.63346941 +.00000311 +00000+0 +43792-4 0  9993,2   228  48.4283 137.6210 0015375 235.1321 124.8157 15.01446093133335,6940.573,95.90799999999999,573.109,551.7669999999998,0.0
228,DELTA 1 DEB (YO),DEBRIS,2020-11-12 05:34:39,15.01446984,0.0015390999999999998,48.4283,134.6749,237.6686,122.2748,4.6113000000000004e-05,3.41e-06,0.0,0 DELTA 1 DEB (YO),1   228U 62002C   20317.23239768 +.00000341 +00000+0 +46113-4 0  9991,2   228  48.4283 134.6749 0015391 237.6686 122.2748 15.01446984133425,6940.571,95.90700000000001,573.118,551.753,0.0
228,DELTA 1 DEB (YO),DEBRIS,2020-11-13 18:18:42,15.01448853,0.0015439,48.4284,127.1452,244.2046,115.7285,4.5885e-05,3.38e-06,0.0,0 DELTA 1 DEB (YO),1   228U 62002C   20318.76299108 +.00000338 +00000-0 +45885-4 0  9996,2   228 048.4284 127.1452 0015439 244.2046 115.7285 15.01448853133656,6940.565,95.90700000000001,573.145,551.714,0.0
228,DELTA 1 DEB (YO),DEBRIS,2020-11-15 11:50:14,15.01451213,0.0015467,48.4285,118.6336,251.7126,108.2114,4.7607e-05,3.61e-06,0.0,0 DELTA 1 DEB (YO),1   228U 62002C   20320.49322466 +.00000361 +00000-0 +47607-4 0  9993,2   228 048.4285 118.6336 0015467 251.7126 108.2114 15.01451213133917,6940.558000000001,95.90700000000001,573.1569999999998,551.688,0.0
228,DELTA 1 DEB (YO),DEBRIS,2020-11-16 03:48:31,15.01452165,0.0015482999999999998,48.4287,115.3602,254.5051,105.4163,4.854e-05,3.73e-06,0.0,0 DELTA 1 DEB (YO),1   228U 62002C   20321.15869861 +.00000373 +00000-0 +48540-4 0  9992,2   228 048.4287 115.3602 0015483 254.5051 105.4163 15.01452165134017,6940.555,95.90700000000001,573.1659999999998,551.674,0.0
228,DELTA 1 DEB (YO),DEBRIS,2020-11-17 16:32:34,15.01454325,0.0015559,48.4287,107.8305,260.9604,98.9559,4.9521e-05,3.86e-06,0.0,0 DELTA 1 DEB (YO),1   228U 62002C   20322.68928736 +.00000386 +00000-0 +49521-4 0  9992,2   228 048.4287 107.8305 0015559 260.9604 098.9559 15.01454325134242,6940.5480000000025,95.90700000000001,573.212,551.614,0.0
228,DELTA 1 DEB (YO),DEBRIS,2020-11-18 16:29:59,15.01455671,0.0015557000000000001,48.4289,102.9203,265.2876,94.6271,4.8523e-05,3.73e-06,0.0,0 DELTA 1 DEB (YO),1   228U 62002C   20323.68749662  .00000373  00000-0  48523-4 0  9999,2   228  48.4289 102.9203 0015557 265.2876  94.6271 15.01455671158520,6940.544,95.90700000000001,573.206,551.611,0.0
